STARLINK-36824          
1 67953U 26037X   26067.91668981 -.01601385  00000+0 -79556-2 0  9996
2 67953  42.9993 203.1047 0001563 279.1868 348.2647 15.83880290  3079
STARLINK-36869          
1 67954U 26037Y   26067.91668981 -.01618294  00000+0 -79235-2 0  9998
2 67954  42.9992 203.0844 0001397 271.4853   3.8418 15.84214890  3075
STARLINK-36872          
1 67955U 26037Z   26067.91668981 -.01621436  00000+0 -78679-2 0  9992
2 67955  42.9992 203.0637 0001648 275.0347   8.4098 15.84402823  3073
STARLINK-36918          
1 67956U 26037AA  26067.91668981 -.01623905  00000+0 -78543-2 0  9996
2 67956  42.9993 203.0535 0001552 274.4217  13.1244 15.84475616  3071
STARLINK-36829          
1 67957U 26037AB  26067.91668981 -.01621537  00000+0 -78938-2 0  9994
2 67957  42.9990 203.0746 0001513 276.6395   2.6837 15.84338147  3079
STARLINK-36799          
1 67958U 26037AC  26067.91668981 -.01627912  00000+0 -78291-2 0  9990
2 67958  42.9990 203.0439 0001629 276.0094  15.5062 15.84598655  3072
STARLINK-36834          
1 67959U 26037AD  26067.91668981 -.01639304  00000+0 -78327-2 0  9999
2 67959  42.9991 203.0230 0001564 273.2495  26.4251 15.84754767  3074
STARLINK-36841          
1 67960U 26037AE  26067.91668981 -.01630149  00000+0 -78060-2 0  9993
2 67960  42.9991 203.0333 0001565 277.6639  17.8823 15.84692709  3075
STARLINK-36912          
1 67961U 26038A   26067.91668981 -.01630384  73052-3 -54967-2 0  9997
2 67961  97.2745  78.1362 0001317  87.6844 206.6868 15.90091974  3072
STARLINK-36881          
1 67962U 26038B   26067.91668981 -.01624197  72601-3 -54517-2 0  9993
2 67962  97.2744  78.1373 0001235  85.3769 211.8372 15.90179479  3079
STARLINK-36357          
1 67963U 26038C   26067.91668981 -.01624275  72800-3 -53784-2 0  9997
2 67963  97.2739  78.1408 0001203  88.1850 216.8388 15.90449206  3070
STARLINK-36349          
1 67964U 26038D   26067.91668981 -.01634161  73531-3 -54464-2 0  9991
2 67964  97.2737  78.1386 0001317  86.3271 214.7857 15.90321310  3070
STARLINK-36806          
1 67965U 26038E   26067.91668981 -.01628768  73290-3 -53496-2 0  9994
2 67965  97.2730  78.1423 0001215  89.0121 220.5505 15.90610869  3072
STARLINK-36820          
1 67966U 26038F   26067.91668981 -.01628920  73397-3 -53151-2 0  9991
2 67966  97.2730  78.1441 0001281  88.5173 224.8444 15.90740509  3071
STARLINK-36819          
1 67967U 26038G   26067.91668981 -.01620380  72783-3 -52504-2 0  9993
2 67967  97.2730  78.1456 0001234  83.9432 233.5118 15.90877638  3072
STARLINK-36812          
1 67968U 26038H   26067.91668981 -.01618577  72717-3 -52136-2 0  9997
2 67968  97.2725  78.1466 0001229  87.6058 233.3366 15.90994200  3075
