[{"OBJECT_NAME":"STARLINK-36824","OBJECT_ID":"2026-037X","EPOCH":"2026-03-08T22:00:01.999584","MEAN_MOTION":15.8388029,"ECCENTRICITY":0.0001563,"INCLINATION":42.9993,"RA_OF_ASC_NODE":203.1047,"ARG_OF_PERICENTER":279.1868,"MEAN_ANOMALY":348.2647,"EPHEMERIS_TYPE":0,"CLASSIFICATION_TYPE":"U","NORAD_CAT_ID":67953,"ELEMENT_SET_NO":999,"REV_AT_EPOCH":307,"BSTAR":-0.0079556151,"MEAN_MOTION_DOT":-0.01601385,"MEAN_MOTION_DDOT":0},{"OBJECT_NAME":"STARLINK-36869","OBJECT_ID":"2026-037Y","EPOCH":"2026-03-08T22:00:01.999584","MEAN_MOTION":15.8421489,"ECCENTRICITY":0.00013978,"INCLINATION":42.9992,"RA_OF_ASC_NODE":203.0844,"ARG_OF_PERICENTER":271.4853,"MEAN_ANOMALY":3.8418,"EPHEMERIS_TYPE":0,"CLASSIFICATION_TYPE":"U","NORAD_CAT_ID":67954,"ELEMENT_SET_NO":999,"REV_AT_EPOCH":307,"BSTAR":-0.0079235179,"MEAN_MOTION_DOT":-0.01618294,"MEAN_MOTION_DDOT":0},{"OBJECT_NAME":"STARLINK-36872","OBJECT_ID":"2026-037Z","EPOCH":"2026-03-08T22:00:01.999584","MEAN_MOTION":15.84402823,"ECCENTRICITY":0.00016483,"INCLINATION":42.9992,"RA_OF_ASC_NODE":203.0637,"ARG_OF_PERICENTER":275.0347,"MEAN_ANOMALY":8.4098,"EPHEMERIS_TYPE":0,"CLASSIFICATION_TYPE":"U","NORAD_CAT_ID":67955,"ELEMENT_SET_NO":999,"REV_AT_EPOCH":307,"BSTAR":-0.0078678559,"MEAN_MOTION_DOT":-0.01621436,"MEAN_MOTION_DDOT":0},{"OBJECT_NAME":"STARLINK-36918","OBJECT_ID":"2026-037AA","EPOCH":"2026-03-08T22:00:01.999584","MEAN_MOTION":15.84475616,"ECCENTRICITY":0.0001552,"INCLINATION":42.9993,"RA_OF_ASC_NODE":203.0535,"ARG_OF_PERICENTER":274.4217,"MEAN_ANOMALY":13.1244,"EPHEMERIS_TYPE":0,"CLASSIFICATION_TYPE":"U","NORAD_CAT_ID":67956,"ELEMENT_SET_NO":999,"REV_AT_EPOCH":307,"BSTAR":-0.0078542563,"MEAN_MOTION_DOT":-0.01623905,"MEAN_MOTION_DDOT":0},{"OBJECT_NAME":"STARLINK-36829","OBJECT_ID":"2026-037AB","EPOCH":"2026-03-08T22:00:01.999584","MEAN_MOTION":15.84338147,"ECCENTRICITY":0.00015131,"INCLINATION":42.999,"RA_OF_ASC_NODE":203.0746,"ARG_OF_PERICENTER":276.6395,"MEAN_ANOMALY":2.6837,"EPHEMERIS_TYPE":0,"CLASSIFICATION_TYPE":"U","NORAD_CAT_ID":67957,"ELEMENT_SET_NO":999,"REV_AT_EPOCH":307,"BSTAR":-0.0078938439,"MEAN_MOTION_DOT":-0.01621537,"MEAN_MOTION_DDOT":0},{"OBJECT_NAME":"STARLINK-36799","OBJECT_ID":"2026-037AC","EPOCH":"2026-03-08T22:00:01.999584","MEAN_MOTION":15.84598655,"ECCENTRICITY":0.00016292,"INCLINATION":42.999,"RA_OF_ASC_NODE":203.0439,"ARG_OF_PERICENTER":276.0094,"MEAN_ANOMALY":15.5062,"EPHEMERIS_TYPE":0,"CLASSIFICATION_TYPE":"U","NORAD_CAT_ID":67958,"ELEMENT_SET_NO":999,"REV_AT_EPOCH":307,"BSTAR":-0.0078291354,"MEAN_MOTION_DOT":-0.01627912,"MEAN_MOTION_DDOT":0},{"OBJECT_NAME":"STARLINK-36834","OBJECT_ID":"2026-037AD","EPOCH":"2026-03-08T22:00:01.999584","MEAN_MOTION":15.84754767,"ECCENTRICITY":0.00015643,"INCLINATION":42.9991,"RA_OF_ASC_NODE":203.023,"ARG_OF_PERICENTER":273.2495,"MEAN_ANOMALY":26.4251,"EPHEMERIS_TYPE":0,"CLASSIFICATION_TYPE":"U","NORAD_CAT_ID":67959,"ELEMENT_SET_NO":999,"REV_AT_EPOCH":307,"BSTAR":-0.0078326709,"MEAN_MOTION_DOT":-0.01639304,"MEAN_MOTION_DDOT":0},{"OBJECT_NAME":"STARLINK-36841","OBJECT_ID":"2026-037AE","EPOCH":"2026-03-08T22:00:01.999584","MEAN_MOTION":15.84692709,"ECCENTRICITY":0.00015658,"INCLINATION":42.9991,"RA_OF_ASC_NODE":203.0333,"ARG_OF_PERICENTER":277.6639,"MEAN_ANOMALY":17.8823,"EPHEMERIS_TYPE":0,"CLASSIFICATION_TYPE":"U","NORAD_CAT_ID":67960,"ELEMENT_SET_NO":999,"REV_AT_EPOCH":307,"BSTAR":-0.007805965,"MEAN_MOTION_DOT":-0.01630149,"MEAN_MOTION_DDOT":0},{"OBJECT_NAME":"STARLINK-36912","OBJECT_ID":"2026-038A","EPOCH":"2026-03-08T22:00:01.999584","MEAN_MOTION":15.90091974,"ECCENTRICITY":0.00013179,"INCLINATION":97.2745,"RA_OF_ASC_NODE":78.1362,"ARG_OF_PERICENTER":87.6844,"MEAN_ANOMALY":206.6868,"EPHEMERIS_TYPE":0,"CLASSIFICATION_TYPE":"U","NORAD_CAT_ID":67961,"ELEMENT_SET_NO":999,"REV_AT_EPOCH":307,"BSTAR":-0.0054967261,"MEAN_MOTION_DOT":-0.01630384,"MEAN_MOTION_DDOT":0.00073051937},{"OBJECT_NAME":"STARLINK-36881","OBJECT_ID":"2026-038B","EPOCH":"2026-03-08T22:00:01.999584","MEAN_MOTION":15.90179479,"ECCENTRICITY":0.00012353,"INCLINATION":97.2744,"RA_OF_ASC_NODE":78.1373,"ARG_OF_PERICENTER":85.3769,"MEAN_ANOMALY":211.8372,"EPHEMERIS_TYPE":0,"CLASSIFICATION_TYPE":"U","NORAD_CAT_ID":67962,"ELEMENT_SET_NO":999,"REV_AT_EPOCH":307,"BSTAR":-0.0054516534,"MEAN_MOTION_DOT":-0.01624197,"MEAN_MOTION_DDOT":0.00072600909},{"OBJECT_NAME":"STARLINK-36357","OBJECT_ID":"2026-038C","EPOCH":"2026-03-08T22:00:01.999584","MEAN_MOTION":15.90449206,"ECCENTRICITY":0.00012032,"INCLINATION":97.2739,"RA_OF_ASC_NODE":78.1408,"ARG_OF_PERICENTER":88.185,"MEAN_ANOMALY":216.8388,"EPHEMERIS_TYPE":0,"CLASSIFICATION_TYPE":"U","NORAD_CAT_ID":67963,"ELEMENT_SET_NO":999,"REV_AT_EPOCH":307,"BSTAR":-0.0053783851,"MEAN_MOTION_DOT":-0.01624275,"MEAN_MOTION_DDOT":0.00072799693},{"OBJECT_NAME":"STARLINK-36349","OBJECT_ID":"2026-038D","EPOCH":"2026-03-08T22:00:01.999584","MEAN_MOTION":15.9032131,"ECCENTRICITY":0.0001317,"INCLINATION":97.2737,"RA_OF_ASC_NODE":78.1386,"ARG_OF_PERICENTER":86.3271,"MEAN_ANOMALY":214.7857,"EPHEMERIS_TYPE":0,"CLASSIFICATION_TYPE":"U","NORAD_CAT_ID":67964,"ELEMENT_SET_NO":999,"REV_AT_EPOCH":307,"BSTAR":-0.0054464211,"MEAN_MOTION_DOT":-0.01634161,"MEAN_MOTION_DDOT":0.00073531289},{"OBJECT_NAME":"STARLINK-36806","OBJECT_ID":"2026-038E","EPOCH":"2026-03-08T22:00:01.999584","MEAN_MOTION":15.90610869,"ECCENTRICITY":0.00012158,"INCLINATION":97.273,"RA_OF_ASC_NODE":78.1423,"ARG_OF_PERICENTER":89.0121,"MEAN_ANOMALY":220.5505,"EPHEMERIS_TYPE":0,"CLASSIFICATION_TYPE":"U","NORAD_CAT_ID":67965,"ELEMENT_SET_NO":999,"REV_AT_EPOCH":307,"BSTAR":-0.0053495914,"MEAN_MOTION_DOT":-0.01628768,"MEAN_MOTION_DDOT":0.00073290057},{"OBJECT_NAME":"STARLINK-36820","OBJECT_ID":"2026-038F","EPOCH":"2026-03-08T22:00:01.999584","MEAN_MOTION":15.90740509,"ECCENTRICITY":0.0001281,"INCLINATION":97.273,"RA_OF_ASC_NODE":78.1441,"ARG_OF_PERICENTER":88.5173,"MEAN_ANOMALY":224.8444,"EPHEMERIS_TYPE":0,"CLASSIFICATION_TYPE":"U","NORAD_CAT_ID":67966,"ELEMENT_SET_NO":999,"REV_AT_EPOCH":307,"BSTAR":-0.0053151042,"MEAN_MOTION_DOT":-0.0162892,"MEAN_MOTION_DDOT":0.00073396585},{"OBJECT_NAME":"STARLINK-36819","OBJECT_ID":"2026-038G","EPOCH":"2026-03-08T22:00:01.999584","MEAN_MOTION":15.90877638,"ECCENTRICITY":0.00012345,"INCLINATION":97.273,"RA_OF_ASC_NODE":78.1456,"ARG_OF_PERICENTER":83.9432,"MEAN_ANOMALY":233.5118,"EPHEMERIS_TYPE":0,"CLASSIFICATION_TYPE":"U","NORAD_CAT_ID":67967,"ELEMENT_SET_NO":999,"REV_AT_EPOCH":307,"BSTAR":-0.0052503627,"MEAN_MOTION_DOT":-0.0162038,"MEAN_MOTION_DDOT":0.00072783075},{"OBJECT_NAME":"STARLINK-36812","OBJECT_ID":"2026-038H","EPOCH":"2026-03-08T22:00:01.999584","MEAN_MOTION":15.909942,"ECCENTRICITY":0.00012298,"INCLINATION":97.2725,"RA_OF_ASC_NODE":78.1466,"ARG_OF_PERICENTER":87.6058,"MEAN_ANOMALY":233.3366,"EPHEMERIS_TYPE":0,"CLASSIFICATION_TYPE":"U","NORAD_CAT_ID":67968,"ELEMENT_SET_NO":999,"REV_AT_EPOCH":307,"BSTAR":-0.0052135509,"MEAN_MOTION_DOT":-0.01618577,"MEAN_MOTION_DDOT":0.00072716642}]
